ONEWEB-0674             
1 55833U 23029AP  25341.21152924 -.00000007  00000+0 -54635-4 0  9996
2 55833  87.8980 327.9810 0002129  96.1824 263.9549 13.14503321134199
ONEWEB-0675             
1 55834U 23029AQ  25341.23911819 -.00000078  00000+0 -22794-3 0  9993
2 55834  87.9186 343.1822 0001526  83.1970 276.9336 13.19723488133606
ONEWEB-0720             
1 55835U 23029AR  25341.30703817 -.00000020  00000+0 -81469-4 0  9991
2 55835  87.9189 343.1668 0002062  82.4918 277.6449 13.19724485133531
ONEWEB-0537             
1 56046U 23043A   25341.22627971  .00000119  00000+0  27794-3 0  9996
2 56046  87.9045 266.9946 0001548  72.3394 287.7906 13.16594364133709
ONEWEB-0538             
1 56047U 23043B   25341.21994205  .00000080  00000+0  17486-3 0  9997
2 56047  87.9041 267.0004 0001745  64.4411 295.6901 13.16595320133711
ONEWEB-0546             
1 56048U 23043C   25341.20728430  .00000056  00000+0  11320-3 0  9996
2 56048  87.9054 266.9935 0001072  76.1984 283.9267 13.16595594133702
ONEWEB-0547             
1 56049U 23043D   25341.28281435  .00000152  00000+0  33532-3 0  9990
2 56049  87.9215 282.2493 0001889  73.2347 286.8994 13.21824902132879
ONEWEB-0548             
1 56050U 23043E   25341.23181001  .00000162  00000+0  39110-3 0  9994
2 56050  87.9035 266.9967 0001937  88.3954 271.7399 13.16593219133704
